NORAD_CAT_ID,OBJECT_NAME,OBJECT_TYPE,EPOCH,MEAN_MOTION,ECCENTRICITY,INCLINATION,RA_OF_ASC_NODE,ARG_OF_PERICENTER,MEAN_ANOMALY,BSTAR,MEAN_MOTION_DOT,MEAN_MOTION_DDOT,TLE_LINE0,TLE_LINE1,TLE_LINE2,SEMIMAJOR_AXIS,PERIOD,APOGEE,PERIGEE,DECAYED
53556.0,STARLINK-4505,PAYLOAD,2024-06-05 17:15:33,15.08840254,0.0001018,53.2202,66.0436,95.8414,264.2694,8.8657e-06,-1.47e-06,0.0,0 STARLINK-4505,1 53556U 22101AF  24157.71913537 -.00000147  00000-0  88657-5 0  9997,2 53556  53.2202  66.0436 0001018  95.8414 264.2694 15.08840254 99396,6917.88,95.438,540.449,539.04,0.0
53556.0,STARLINK-4505,PAYLOAD,2024-06-06 10:44:48,15.08834497,0.0001696,53.2177,62.77,89.0739,271.0447,7.0148e-05,8.28e-06,0.0,0 STARLINK-4505,1 53556U 22101AF  24158.44777942  .00000828  00000-0  70148-4 0  9996,2 53556  53.2177  62.7700 0001696  89.0739 271.0447 15.08834497 99508,6917.897,95.438,540.935,538.589,0.0
53556.0,STARLINK-4505,PAYLOAD,2024-06-07 16:57:08,15.0883482,0.0002151,53.2181,57.1185,81.0824,279.0412,3.4143e-05,2.55e-06,0.0,0 STARLINK-4505,1 53556U 22101AF  24159.70634433  .00000255  00000-0  34143-4 0  9992,2 53556  53.2181  57.1185 0002151  81.0824 279.0412 15.08834820 99692,6917.896,95.438,541.249,538.273,0.0
53556.0,STARLINK-4505,PAYLOAD,2024-06-07 23:18:40,15.08834667,0.0001263,53.2157,55.9305,83.5486,276.565,4.552e-05,4.37e-06,0.0,0 STARLINK-4505,1 53556U 22101AF  24159.97130252  .00000437  00000-0  45520-4 0  9994,2 53556  53.2157  55.9305 0001263  83.5486 276.5650 15.08834667 99739,6917.897,95.438,540.635,538.888,0.0
53556.0,STARLINK-4505,PAYLOAD,2024-06-08 02:29:25,15.08849812,0.000142,53.2185,55.334,85.8946,274.2209,0.00013589,1.876e-05,0.0,0 STARLINK-4505,1 53556U 22101AF  24160.10377109  .00001876  00000-0  13589-3 0  9992,2 53556  53.2185  55.3340 0001420  85.8946 274.2209 15.08849812 99759,6917.85,95.437,540.698,538.733,0.0
53556.0,STARLINK-4505,PAYLOAD,2024-06-08 10:26:22,15.08840514,0.000135,53.2188,53.8465,94.0903,266.0244,9.0296e-05,1.149e-05,0.0,0 STARLINK-4505,1 53556U 22101AF  24160.43497766  .00001149  00000-0  90296-4 0  9994,2 53556  53.2188  53.8465 0001350  94.0903 266.0244 15.08840514 99804,6917.879,95.438,540.678,538.81,0.0
53556.0,STARLINK-4505,PAYLOAD,2024-06-08 16:47:54,15.08840451,0.0001561,53.2171,52.6584,92.233,267.8841,1.8529e-05,7e-08,0.0,0 STARLINK-4505,1 53556U 22101AF  24160.69994046  .00000007  00000-0  18529-4 0  9996,2 53556  53.2171  52.6584 0001561  92.2330 267.8841 15.08840451 99849,6917.879,95.438,540.824,538.664,0.0
53556.0,STARLINK-4505,PAYLOAD,2024-06-08 23:09:27,15.0884477,0.0001565,53.216,51.4693,92.0998,268.0173,5.3493e-05,5.64e-06,0.0,0 STARLINK-4505,1 53556U 22101AF  24160.96489630  .00000564  00000-0  53493-4 0  9991,2 53556  53.2160  51.4693 0001565  92.0998 268.0173 15.08844770 99880,6917.866,95.437,540.813,538.648,0.0
53556.0,STARLINK-4505,PAYLOAD,2024-06-09 23:00:14,15.08836885,0.0001063,53.2176,47.0101,82.0203,278.091,0.00012975,1.778e-05,0.0,0 STARLINK-4505,1 53556U 22101AF  24161.95850062  .00001778  00000-0  12975-3 0  9999,2 53556  53.2176  47.0101 0001063  82.0203 278.0910 15.08836885100031,6917.89,95.438,540.49,539.02,0.0
53556.0,STARLINK-4505,PAYLOAD,2024-06-10 22:51:01,15.08846157,0.0001395,53.2187,42.5491,102.025,258.0899,0.00010103,1.321e-05,0.0,0 STARLINK-4505,1 53556U 22101AF  24162.95209563  .00001321  00000-0  10103-3 0  9999,2 53556  53.2187  42.5491 0001395 102.0250 258.0899 15.08846157100181,6917.862,95.437,540.692,538.762,0.0
53556.0,STARLINK-4505,PAYLOAD,2024-06-11 08:23:21,15.0882301,0.0001249,53.2188,40.7659,95.702,264.4114,-5.1609e-05,-1.109e-05,0.0,0 STARLINK-4505,1 53556U 22101AF  24163.34955321 -.00001109  00000-0 -51609-4 0  9996,2 53556  53.2188  40.7659 0001249  95.7020 264.4114 15.08823010100240,6917.932,95.439,540.661,538.933,0.0
53556.0,STARLINK-4505,PAYLOAD,2024-06-12 01:52:34,15.08843822,0.0001314,53.2189,37.4925,86.6744,273.4398,0.00013457,1.855e-05,0.0,0 STARLINK-4505,1 53556U 22101AF  24164.07817816  .00001855  00000-0  13457-3 0  9997,2 53556  53.2189  37.4925 0001314  86.6744 273.4398 15.08843822100354,6917.869,95.437,540.643,538.825,0.0
53556.0,STARLINK-4505,PAYLOAD,2024-06-12 20:57:13,15.0883009,0.0001537,53.2196,33.9256,89.5866,270.5302,-4.8523e-05,-1.06e-05,0.0,0 STARLINK-4505,1 53556U 22101AF  24164.87307456 -.00001060  00000-0 -48523-4 0  9992,2 53556  53.2196  33.9256 0001537  89.5866 270.5302 15.08830090100473,6917.911,95.438,540.839,538.712,0.0
53556.0,STARLINK-4505,PAYLOAD,2024-06-13 00:07:59,15.08835999,0.0001575,53.2194,33.3336,98.9582,261.1588,-1.2068e-05,-4.8e-06,0.0,0 STARLINK-4505,1 53556U 22101AF  24165.00555021 -.00000480  00000-0 -12068-4 0  9991,2 53556  53.2194  33.3336 0001575  98.9582 261.1588 15.08835999100492,6917.893,95.438,540.847,538.668,0.0
53556.0,STARLINK-4505,PAYLOAD,2024-06-13 08:04:55,15.08839775,0.0001561,53.2195,31.8473,96.7301,263.3869,1.8085e-05,0.0,0.0,0 STARLINK-4505,1 53556U 22101AF  24165.33674778  .00000000  00000-0  18085-4 0  9999,2 53556  53.2195  31.8473 0001561  96.7301 263.3869 15.08839775100546,6917.881,95.438,540.826,538.666,0.0
53556.0,STARLINK-4505,PAYLOAD,2024-06-13 22:23:22,15.08845545,0.0001492,53.2192,29.1695,88.9048,271.2115,7.8553e-05,9.63e-06,0.0,0 STARLINK-4505,1 53556U 22101AF  24165.93290416  .00000963  00000-0  78553-4 0  9992,2 53556  53.2192  29.1695 0001492  88.9048 271.2115 15.08845545100637,6917.863,95.437,540.761,538.696,0.0
53556.0,STARLINK-4505,PAYLOAD,2024-06-14 07:55:41,15.08841225,0.0001422,53.2191,27.3823,87.9164,272.1991,5.1377e-05,5.3e-06,0.0,0 STARLINK-4505,1 53556U 22101AF  24166.33034632  .00000530  00000-0  51377-4 0  9998,2 53556  53.2191  27.3823 0001422  87.9164 272.1991 15.08841225100699,6917.877,95.437,540.725,538.758,0.0
53556.0,STARLINK-4505,PAYLOAD,2024-06-14 22:14:10,15.08844928,0.0001502,53.2187,24.7063,86.4472,273.6692,9.0818e-05,1.158e-05,0.0,0 STARLINK-4505,1 53556U 22101AF  24166.92650474  .00001158  00000-0  90818-4 0  9991,2 53556  53.2187  24.7063 0001502  86.4472 273.6692 15.08844928100783,6917.865,95.437,540.769,538.691,0.0
53556.0,STARLINK-4505,PAYLOAD,2024-06-15 07:46:28,15.08844063,0.0001529,53.2188,22.921,85.2035,274.9132,6.9948e-05,8.26e-06,0.0,0 STARLINK-4505,1 53556U 22101AF  24167.32394506  .00000826  00000-0  69948-4 0  9998,2 53556  53.2188  22.9210 0001529  85.2035 274.9132 15.08844063100849,6917.868,95.437,540.791,538.675,0.0
53556.0,STARLINK-4505,PAYLOAD,2024-06-15 20:29:33,15.08850217,0.0001332,53.2176,20.5427,93.2076,266.9069,2.5956e-05,1.25e-06,0.0,0 STARLINK-4505,1 53556U 22101AF  24167.85386065  .00000125  00000-0  25956-4 0  9990,2 53556  53.2176  20.5427 0001332  93.2076 266.9069 15.08850217100923,6917.849,95.437,540.636,538.793,0.0
53556.0,STARLINK-4505,PAYLOAD,2024-06-16 13:58:48,15.08841939,0.0001661,53.2191,17.2717,100.0462,260.0718,4.9038e-05,4.93e-06,0.0,0 STARLINK-4505,1 53556U 22101AF  24168.58250372  .00000493  00000-0  49038-4 0  9997,2 53556  53.2191  17.2717 0001661 100.0462 260.0718 15.08841939101036,6917.874,95.437,540.889,538.59,0.0
53556.0,STARLINK-4505,PAYLOAD,2024-06-16 21:55:43,15.08844151,0.0001582,53.2186,15.7864,94.5168,265.6005,1.6654e-05,-2.3e-07,0.0,0 STARLINK-4505,1 53556U 22101AF  24168.91370259 -.00000023  00000-0  16654-4 0  9999,2 53556  53.2186  15.7864 0001582  94.5168 265.6005 15.08844151101082,6917.868,95.437,540.827,538.638,0.0
53556.0,STARLINK-4505,PAYLOAD,2024-06-17 20:11:08,15.08833375,0.0001449,53.2184,11.6218,94.6707,265.4451,-3.185e-05,-7.95e-06,0.0,0 STARLINK-4505,1 53556U 22101AF  24169.84107083 -.00000795  00000-0 -31850-4 0  9997,2 53556  53.2184  11.6218 0001449  94.6707 265.4451 15.08833375101225,6917.901,95.438,540.768,538.763,0.0
53556.0,STARLINK-4505,PAYLOAD,2024-06-18 20:01:54,15.08844374,0.0001266,53.2176,7.1619,84.7687,275.345,6.3267e-05,7.19e-06,0.0,0 STARLINK-4505,1 53556U 22101AF  24170.83466225  .00000719  00000-0  63267-4 0  9995,2 53556  53.2176   7.1619 0001266  84.7687 275.3450 15.08844374101371,6917.867,95.437,540.608,538.856,0.0
53556.0,STARLINK-4505,PAYLOAD,2024-06-19 13:31:10,15.08823511,0.0001265,53.2171,3.891,86.1286,273.9851,7.4405e-05,8.96e-06,0.0,0 STARLINK-4505,1 53556U 22101AF  24171.56331537  .00000896  00000-0  74405-4 0  9995,2 53556  53.2171   3.8910 0001265  86.1286 273.9851 15.08823511101484,6917.931,95.439,540.671,538.921,0.0
53556.0,STARLINK-4505,PAYLOAD,2024-06-19 19:52:42,15.08835779,0.0001332,53.2185,2.7033,96.285,263.8294,4.4572e-05,4.21e-06,0.0,0 STARLINK-4505,1 53556U 22101AF  24171.82827131  .00000421  00000-0  44572-4 0  9990,2 53556  53.2185   2.7033 0001332  96.2850 263.8294 15.08835779101520,6917.893,95.438,540.68,538.837,0.0
53556.0,STARLINK-4505,PAYLOAD,2024-06-20 11:46:34,15.08840667,0.0001281,53.2183,359.7311,96.3374,263.7764,-6.4172e-06,-3.9e-06,0.0,0 STARLINK-4505,1 53556U 22101AF  24172.49067215 -.00000390  00000-0 -64172-5 0  9999,2 53556  53.2183 359.7311 0001281  96.3374 263.7764 15.08840667101621,6917.878,95.438,540.63,538.857,0.0
53556.0,STARLINK-4505,PAYLOAD,2024-06-20 19:43:29,15.08841481,0.0001292,53.2187,358.2442,96.6551,263.4588,2.9915e-06,-2.4e-06,0.0,0 STARLINK-4505,1 53556U 22101AF  24172.82187160 -.00000240  00000-0  29915-5 0  9997,2 53556  53.2187 358.2442 0001292  96.6551 263.4588 15.08841481101677,6917.876,95.437,540.635,538.847,0.0
53556.0,STARLINK-4505,PAYLOAD,2024-06-21 19:34:16,15.08838833,0.0001197,53.2183,353.785,98.7763,261.3365,6.9397e-05,8.17e-06,0.0,0 STARLINK-4505,1 53556U 22101AF  24173.81547392  .00000817  00000-0  69397-4 0  9990,2 53556  53.2183 353.7850 0001197  98.7763 261.3365 15.08838833101822,6917.884,95.438,540.577,538.921,0.0
53556.0,STARLINK-4505,PAYLOAD,2024-06-22 11:28:08,15.08838333,0.0001189,53.2183,350.8105,92.304,267.8089,8.0645e-05,9.96e-06,0.0,0 STARLINK-4505,1 53556U 22101AF  24174.47787461  .00000996  00000-0  80645-4 0  9993,2 53556  53.2183 350.8105 0001189  92.3040 267.8089 15.08838333101922,6917.885,95.438,540.573,538.928,0.0
